NORAD_CAT_ID,OBJECT_NAME,OBJECT_TYPE,EPOCH,MEAN_MOTION,ECCENTRICITY,INCLINATION,RA_OF_ASC_NODE,ARG_OF_PERICENTER,MEAN_ANOMALY,BSTAR,MEAN_MOTION_DOT,MEAN_MOTION_DDOT,TLE_LINE0,TLE_LINE1,TLE_LINE2,SEMIMAJOR_AXIS,PERIOD,APOGEE,PERIGEE,DECAYED
55428.0,STARLINK-5064,PAYLOAD,2024-05-24 19:35:37,14.98339667,0.0002722,69.9996,293.2896,261.8718,98.2132,8.0897e-05,8.73e-06,0.0,0 STARLINK-5064,1 55428U 23014AP  24145.81640084  .00000873  00000-0  80897-4 0  9995,2 55428  69.9996 293.2896 0002722 261.8718  98.2132 14.98339667 73617,6950.163,96.106,573.92,570.136,0.0
55428.0,STARLINK-5064,PAYLOAD,2024-05-25 13:13:06,14.9832096,0.0002572,70.0,291.4377,258.0036,102.0834,5.528e-06,-2.7e-07,0.0,0 STARLINK-5064,1 55428U 23014AP  24146.55077450 -.00000027  00000-0  55280-5 0  9999,2 55428  70.0000 291.4377 0002572 258.0036 102.0834 14.98320960 72780,6950.221,96.108,573.873,570.298,0.0
55428.0,STARLINK-5064,PAYLOAD,2024-05-25 14:49:15,14.98320622,0.0002579,70.0,291.2694,258.044,102.043,-4.8231e-07,-9.9e-07,0.0,0 STARLINK-5064,1 55428U 23014AP  24146.61753516 -.00000099  00000-0 -48231-6 0  9999,2 55428  70.0000 291.2694 0002579 258.0440 102.0430 14.98320622 73739,6950.222,96.108,573.879,570.294,0.0
55428.0,STARLINK-5064,PAYLOAD,2024-05-26 13:15:07,14.98334586,0.0003075,69.9988,288.9113,266.2884,93.7923,7.2312e-06,-7e-08,0.0,0 STARLINK-5064,1 55428U 23014AP  24147.55216746 -.00000007  00000-0  72312-5 0  9996,2 55428  69.9988 288.9113 0003075 266.2884  93.7923 14.98334586 72933,6950.179,96.107,574.181,569.907,0.0
55428.0,STARLINK-5064,PAYLOAD,2024-05-26 14:51:15,14.98332822,0.0003099,69.9989,288.7432,267.5441,92.5363,4.1774e-05,4.05e-06,0.0,0 STARLINK-5064,1 55428U 23014AP  24147.61892770  .00000405  00000-0  41774-4 0  9998,2 55428  69.9989 288.7432 0003099 267.5441  92.5363 14.98332822 73886,6950.184,96.107,574.203,569.895,0.0
55428.0,STARLINK-5064,PAYLOAD,2024-05-26 19:39:39,14.98336794,0.0003132,69.999,288.2388,266.1414,93.9387,7.7422e-05,8.31e-06,0.0,0 STARLINK-5064,1 55428U 23014AP  24147.81920365  .00000831  00000-0  77422-4 0  9994,2 55428  69.9990 288.2388 0003132 266.1414  93.9387 14.98336794 73913,6950.172,96.107,574.214,569.86,0.0
55428.0,STARLINK-5064,PAYLOAD,2024-05-27 13:17:08,14.98326236,0.0003092,69.9992,286.3869,267.1555,92.9251,0.0001334,1.499e-05,0.0,0 STARLINK-5064,1 55428U 23014AP  24148.55356915  .00001499  00000-0  13340-3 0  9999,2 55428  69.9992 286.3869 0003092 267.1555  92.9251 14.98326236 73087,6950.205,96.107,574.219,569.921,0.0
55428.0,STARLINK-5064,PAYLOAD,2024-05-27 14:53:16,14.9832693,0.000292,69.9995,286.2184,264.7204,95.3622,0.00012898,1.446e-05,0.0,0 STARLINK-5064,1 55428U 23014AP  24148.62032896  .00001446  00000-0  12898-3 0  9995,2 55428  69.9995 286.2184 0002920 264.7204  95.3622 14.98326930 74038,6950.202,96.107,574.097,570.038,0.0
55428.0,STARLINK-5064,PAYLOAD,2024-05-27 19:41:40,14.98329735,0.0002906,69.9995,285.7132,265.4499,94.6328,0.00015406,1.746e-05,0.0,0 STARLINK-5064,1 55428U 23014AP  24148.82060702  .00001746  00000-0  15406-3 0  9995,2 55428  69.9995 285.7132 0002906 265.4499  94.6328 14.98329735 74067,6950.194,96.107,574.078,570.039,0.0
55428.0,STARLINK-5064,PAYLOAD,2024-05-28 13:19:08,14.9833423,0.000283,69.9997,283.862,259.8127,100.2713,4.9818e-05,5.02e-06,0.0,0 STARLINK-5064,1 55428U 23014AP  24149.55496503  .00000502  00000-0  49818-4 0  9992,2 55428  69.9997 283.8620 0002830 259.8127 100.2713 14.98334230 73237,6950.18,96.107,574.012,570.078,0.0
55428.0,STARLINK-5064,PAYLOAD,2024-05-28 18:07:33,14.98334769,0.000283,69.9998,283.3571,260.4499,99.634,5.1577e-05,5.23e-06,0.0,0 STARLINK-5064,1 55428U 23014AP  24149.75524406  .00000523  00000-0  51577-4 0  9996,2 55428  69.9998 283.3571 0002830 260.4499  99.6340 14.98334769 74200,6950.178,96.107,574.01,570.076,0.0
55428.0,STARLINK-5064,PAYLOAD,2024-05-29 13:21:10,14.98329697,0.0002851,69.9998,281.3371,262.4857,97.5978,1.8261e-06,-7.1e-07,0.0,0 STARLINK-5064,1 55428U 23014AP  24150.55636746 -.00000071  00000-0  18261-5 0  9990,2 55428  69.9998 281.3371 0002851 262.4857  97.5978 14.98329697 74320,6950.194,96.107,574.04,570.077,0.0
55428.0,STARLINK-5064,PAYLOAD,2024-05-29 18:09:34,14.98329987,0.0002863,69.9998,280.8321,263.5944,96.4889,1.3032e-06,-7.7e-07,0.0,0 STARLINK-5064,1 55428U 23014AP  24150.75664722 -.00000077  00000-0  13032-5 0  9994,2 55428  69.9998 280.8321 0002863 263.5944  96.4889 14.98329987 73411,6950.193,96.107,574.048,570.068,0.0
55428.0,STARLINK-5064,PAYLOAD,2024-05-30 13:23:10,14.98333211,0.0002871,70.0,278.8131,260.5112,99.5723,3.195e-05,2.88e-06,0.0,0 STARLINK-5064,1 55428U 23014AP  24151.55776417  .00000288  00000-0  31950-4 0  9999,2 55428  70.0000 278.8131 0002871 260.5112  99.5723 14.98333211 74470,6950.183,96.107,574.043,570.053,0.0
55428.0,STARLINK-5064,PAYLOAD,2024-05-30 18:11:34,14.98334715,0.0002962,69.9996,278.3071,267.7814,92.3006,4.7804e-05,4.77e-06,0.0,0 STARLINK-5064,1 55428U 23014AP  24151.75804273  .00000477  00000-0  47804-4 0  9998,2 55428  69.9996 278.3071 0002962 267.7814  92.3006 14.98334715 73562,6950.178,96.107,574.102,569.985,0.0
55428.0,STARLINK-5064,PAYLOAD,2024-05-31 11:49:03,14.98328059,0.0003034,69.9994,276.4564,266.691,93.3902,4.1372e-05,4.01e-06,0.0,0 STARLINK-5064,1 55428U 23014AP  24152.49240633  .00000401  00000-0  41372-4 0  9995,2 55428  69.9994 276.4564 0003034 266.6910  93.3902 14.98328059 73674,6950.199,96.107,574.173,569.955,0.0
55428.0,STARLINK-5064,PAYLOAD,2024-05-31 13:25:11,14.98328163,0.0003032,69.9995,276.2881,266.8555,93.2257,4.1496e-05,4.02e-06,0.0,0 STARLINK-5064,1 55428U 23014AP  24152.55916633  .00000402  00000-0  41496-4 0  9990,2 55428  69.9995 276.2881 0003032 266.8555  93.2257 14.98328163 74624,6950.199,96.107,574.171,569.956,0.0
55428.0,STARLINK-5064,PAYLOAD,2024-05-31 18:13:36,14.98327926,0.0003095,69.9993,275.781,269.7634,90.317,2.6526e-05,2.23e-06,0.0,0 STARLINK-5064,1 55428U 23014AP  24152.75944716  .00000223  00000-0  26526-4 0  9993,2 55428  69.9993 275.7810 0003095 269.7634  90.3170 14.98327926 74658,6950.199,96.107,574.215,569.913,0.0
55428.0,STARLINK-5064,PAYLOAD,2024-06-01 11:51:04,14.98328926,0.0003138,69.9993,273.9296,270.0048,90.0751,2.9653e-05,2.61e-06,0.0,0 STARLINK-5064,1 55428U 23014AP  24153.49380671  .00000261  00000-0  29653-4 0  9995,2 55428  69.9993 273.9296 0003138 270.0048  90.0751 14.98328926 73829,6950.196,96.107,574.242,569.88,0.0
55428.0,STARLINK-5064,PAYLOAD,2024-06-01 15:03:20,14.98333282,0.0003234,69.9991,273.5935,269.3321,90.7467,3.6255e-05,3.4e-06,0.0,0 STARLINK-5064,1 55428U 23014AP  24153.62732365  .00000340  00000-0  36255-4 0  9995,2 55428  69.9991 273.5935 0003234 269.3321  90.7467 14.98333282 74783,6950.183,96.107,574.295,569.8,0.0
55428.0,STARLINK-5064,PAYLOAD,2024-06-02 11:53:05,14.98328537,0.0003239,69.9994,271.4053,269.0776,91.0011,4.0521e-05,3.9e-06,0.0,0 STARLINK-5064,1 55428U 23014AP  24154.49520621  .00000390  00000-0  40521-4 0  9997,2 55428  69.9994 271.4053 0003239 269.0776  91.0011 14.98328537 73976,6950.197,96.107,574.314,569.811,0.0
55428.0,STARLINK-5064,PAYLOAD,2024-06-03 13:31:14,14.98333401,0.0003121,70.0,268.713,267.2382,92.842,6.5199e-05,6.85e-06,0.0,0 STARLINK-5064,1 55428U 23014AP  24155.56336210  .00000685  00000-0  65199-4 0  9990,2 55428  70.0000 268.7130 0003121 267.2382  92.8420 14.98333401 74133,6950.182,96.107,574.217,569.878,0.0
55428.0,STARLINK-5064,PAYLOAD,2024-06-04 13:33:14,14.98337991,0.0003028,69.9997,266.1881,270.8852,89.196,8.1297e-05,8.77e-06,0.0,0 STARLINK-5064,1 55428U 23014AP  24156.56475641  .00000877  00000-0  81297-4 0  9993,2 55428  69.9997 266.1881 0003028 270.8852  89.1960 14.98337991 75225,6950.168,96.106,574.138,569.929,0.0
55428.0,STARLINK-5064,PAYLOAD,2024-06-05 00:46:11,14.98329472,0.0003426,69.9974,265.0074,270.0462,90.0304,0.00011714,1.305e-05,0.0,0 STARLINK-5064,1 55428U 23014AP  24157.03207638  .00001305  00000-0  11714-3 0  9998,2 55428  69.9974 265.0074 0003426 270.0462  90.0304 14.98329472 74354,6950.195,96.107,574.441,569.678,0.0
55428.0,STARLINK-5064,PAYLOAD,2024-06-05 13:35:17,14.98322455,0.0003308,69.9983,263.6612,270.5906,89.4874,-0.00013595,-1.715e-05,0.0,0 STARLINK-5064,1 55428U 23014AP  24157.56617137 -.00001715  00000-0 -13595-3 0  9991,2 55428  69.9983 263.6612 0003308 270.5906  89.4874 14.98322455 74430,6950.216,96.107,574.38,569.782,0.0
55428.0,STARLINK-5064,PAYLOAD,2024-06-05 16:47:33,14.9832328,0.0003273,69.9983,263.3244,270.5694,89.509,-0.00012282,-1.558e-05,0.0,0 STARLINK-5064,1 55428U 23014AP  24157.69969111 -.00001558  00000-0 -12282-3 0  9994,2 55428  69.9983 263.3244 0003273 270.5694  89.5090 14.98323280 75397,6950.214,96.107,574.353,569.804,0.0
55428.0,STARLINK-5064,PAYLOAD,2024-06-06 00:48:13,14.98325044,0.0003163,69.999,262.4833,270.9046,89.1751,2.7779e-05,2.38e-06,0.0,0 STARLINK-5064,1 55428U 23014AP  24158.03348697  .00000238  00000-0  27779-4 0  9993,2 55428  69.9990 262.4833 0003163 270.9046  89.1751 14.98325044 74504,6950.208,96.107,574.272,569.875,0.0
55428.0,STARLINK-5064,PAYLOAD,2024-06-06 13:37:16,14.98340381,0.0003155,69.9989,261.1366,269.9331,90.1466,0.00011539,1.284e-05,0.0,0 STARLINK-5064,1 55428U 23014AP  24158.56755649  .00001284  00000-0  11539-3 0  9998,2 55428  69.9989 261.1366 0003155 269.9331  90.1466 14.98340381 74589,6950.161,96.106,574.219,569.833,0.0
55428.0,STARLINK-5064,PAYLOAD,2024-06-07 08:50:54,14.98324504,0.000297,69.9991,259.1165,270.0182,90.0636,0.00024074,2.78e-05,0.0,0 STARLINK-5064,1 55428U 23014AP  24159.36868511  .00002780  00000-0  24074-3 0  9990,2 55428  69.9991 259.1165 0002970 270.0182  90.0636 14.98324504 74708,6950.21,96.107,574.139,570.011,0.0
55428.0,STARLINK-5064,PAYLOAD,2024-06-07 16:51:34,14.98337678,0.0002982,70.0005,258.2748,270.3607,89.721,0.00035083,4.096e-05,0.0,0 STARLINK-5064,1 55428U 23014AP  24159.70248128  .00004096  00000-0  35083-3 0  9998,2 55428  70.0005 258.2748 0002982 270.3607  89.7210 14.98337678 74756,6950.169,96.107,574.107,569.962,0.0
